IRIDIUM 26              
1 24903U 97043A   25354.63543483  .00000300  00000+0  93865-4 0  9993
2 24903  86.3950  32.2438 0002222  98.6569 261.4881 14.37333342483529
IRIDIUM 22              
1 24907U 97043E   25354.58104873  .00000251  00000+0  79338-4 0  9991
2 24907  86.3955  35.9667 0002330  94.5544 265.5919 14.36126461483528
DUMMY MASS 1            
1 24925U 97048A   25354.87998377  .00000309  00000+0  31236-4 0  9997
2 24925  86.3336  48.9393 0006060 183.0977 177.0211 14.87189163532878
DUMMY MASS 2            
1 24926U 97048B   25354.87332117  .00000312  00000+0  31747-4 0  9993
2 24926  86.3337  50.5848 0006304 198.3157 161.7842 14.86939648532649
IRIDIUM 29              
1 24944U 97051A   25354.60586565  .00000280  00000+0  88323-4 0  9992
2 24944  86.3949  65.6408 0002255  91.2454 268.9001 14.36668430480034
IRIDIUM 33              
1 24946U 97051C   25354.72529263  .00000253  00000+0  81850-4 0  9997
2 24946  86.3864  64.8697 0007988 173.6442 186.4857 14.35042457479498
IRIDIUM 28              
1 24948U 97051E   25354.67076852  .00000288  00000+0  89661-4 0  9990
2 24948  86.3952  63.0225 0002197 109.5574 250.5862 14.37568460480633
IRIDIUM 36              
1 24967U 97056C   25354.81383256  .00000311  00000+0  96741-4 0  9995
2 24967  86.3963  94.5900 0002292 100.8236 259.3220 14.37790560479035
